#aV2013  4  2  0  0  0.00000000     288 DD+AD WGS84 FIT  NGA
## 1734 172800.00000000   300.00000000 56384 0.0000000000000
+   30     1  2  3  4  5  6  7  8  9 10 11 12 13 14 15 16 17
+         18 19 20 21 22 23 24 25 26 28 29 31 32  0  0  0  0
+          0  0  0  0  0  0  0  0  0  0  0  0  0  0  0  0  0
+          0  0  0  0  0  0  0  0  0  0  0  0  0  0  0  0  0
+          0  0  0  0  0  0  0  0  0  0  0  0  0  0  0  0  0
++         2  2  2  2  2  2  2  2  2  2  2  2  2  2  2  2  2
++         2  2  2  2  2  2  2  2  2  2  2  2  2  2  2  0  0
++         0  0  0  0  0  0  0  0  0  0  0  0  0  0  0  0  0
++         0  0  0  0  0  0  0  0  0  0  0  0  0  0  0  0  0
++         0  0  0  0  0  0  0  0  0  0  0  0  0  0  0  0  0
%c cc cc ccc ccc cccc cccc cccc cccc ccccc ccccc ccccc ccccc
%c cc cc ccc ccc cccc cccc cccc cccc ccccc ccccc ccccc ccccc
%f  0.0000000  0.000000000  0.00000000000  0.000000000000000
%f  0.0000000  0.000000000  0.00000000000  0.000000000000000
%i    0    0    0    0      0      0      0      0         0
%i    0    0    0    0      0      0      0      0         0
/*      NGA, ST. LOUIS,MO.                                  
/*   EPHEMERIS COMPUTED FROM  1 DAYS OF DATA
/*   EPOCHA SMOOTHER  
/* CCCCCCCCCCCCCCCCCCCCCCCCCCCCCCCCCCCCCCCCCCCCCCCCCCCCCCCCC
*  2013  4  2 16 30  0.00000000                                                 
P  1 -13966.999097   7897.274103  21136.116267     12.645235                    
V  1  -3803.055838 -26633.267011   7507.948348      0.033371                    
P  2  13583.133543  17151.853511 -15206.670576    425.312383                    
V  2    470.651080  19634.424098  21766.424365      0.018980                    
P  3 -24820.089138  -9355.798621  -3395.581155    188.912490                    
V  3   4454.907077  -2307.621559 -30609.093441      0.049236                    
P  4   7356.599036  24726.871985  -5938.084037    179.036889                    
V  4  -2706.318727   7649.374821  30189.783780      0.108664                    
P  5  17832.580253   3970.847418 -19354.950280   -390.214611                    
V  5 -18821.114342  15755.059630 -13990.452986     -0.013957                    
P  6 -21801.115690 -13562.540156  -7396.796169    289.969867                    
V  6   9900.594606    387.593518 -29166.584949     -0.153926                    
P  7  -6874.088728  21813.240062 -13211.866634    198.206694                    
V  7  -3709.965091 -16648.594417 -25759.420161      0.043052                    
P  8  -1952.603057  25941.608283  -3292.102856      5.426183                    
V  8  -2129.675851  -4355.310561 -32605.060568      0.001018                    
P  9  11658.590964  18853.932599  14019.020178    231.236128                    
V  9    453.738476  18824.990554 -24793.991276      0.026708                    
P 10   2570.976867  16641.035237 -20742.060302    -75.379939                    
V 10 -21645.171411  14159.432095   9214.634209     -0.012377                    
P 11 -17231.731117    685.977943  19811.973208   -368.474600                    
V 11  -9469.009870 -24671.876312  -6947.264960     -0.036592                    
P 12  23242.118116 -10156.418637   7475.914001    126.217431                    
V 12  -6614.015424   7231.232768  30476.036647      0.020718                    
P 13 -13090.901978   9093.342647 -21412.505541    132.309031                    
V 13 -23167.191229 -13411.296161   8410.588968     -0.035591                    
P 14  -7065.348897 -17866.612551  18596.068150    221.074281                    
V 14  21066.882777   9604.191869  17274.126109      0.000659                    
P 15  24778.024355   2355.635892   9599.872169   -113.779361                    
V 15  10247.481977   7190.591319 -27873.855406     -0.014127                    
P 16 -16813.443980  -4807.889325 -20107.545975   -252.607888                    
V 16  20650.281659 -14698.858874 -13431.895354      0.000435                    
P 17   8201.461539  17885.048303  18166.469020     33.998551                    
V 17 -20898.306160  -8534.304244  17821.193889     -0.038825                    
P 18  11724.502100 -20339.492882  12474.247623    246.922579                    
V 18  14351.185397  -6568.778810 -25346.968932      0.018872                    
P 19 -24593.980588  -7589.415672   7307.591468   -361.535447                    
V 19  -7052.121647  -6458.871747 -29691.425273     -0.031324                    
P 20 -22184.318126  13619.016444   4906.808756     91.053365                    
V 20   2563.956875  -7078.220913  30229.455986      0.018107                    
P 21   3956.417073 -24162.056792  -9037.211393   -289.639394                    
V 21   5347.364353  11933.975043 -28405.511361     -0.022019                    
P 22   1134.144321 -18636.691261  19029.416767    163.057599                    
V 22  20333.890757 -12772.484758 -13999.135050      0.013010                    
P 23 -20695.195470   3473.409180 -16447.277219     99.028926                    
V 23 -18347.534538 -10073.051487  20495.843528     -0.036624                    
P 24  14844.292641  -3824.027186  21679.592302     -3.770312                    
V 24   3640.331343  27316.447296   2363.263158     -0.006654                    
P 25  19624.735514 -17540.076196  -3174.982160     83.551302                    
V 25   4690.988562   -403.568894  31737.535437      0.035877                    
P 26  22752.832552  13988.624672  -2061.733540    -42.686362                    
V 26  -2497.851480    808.045114 -31800.298561      0.148905                    
P 28  -5910.459185  18662.671085  18446.118635    246.423458                    
V 28 -19194.499009  11334.326011 -18374.058107      0.033701                    
P 29  12805.596772  -9907.732124 -20989.976833    422.684715                    
V 29  23720.074024  12448.221698   8615.796317      0.035543                    
P 31  -7623.968584 -23918.125919  -8045.741411    309.043410                    
V 31   1318.001101 -10679.971184  30128.567836      0.015543                    
P 32 -23201.242507   4463.788697  11737.010206   -547.645846                    
V 32  11099.226670 -10392.264003  26716.085192     -0.026258                    
EOF
